KUIPER-00065            
1 64525U 25134AB  26065.51577032  .00003925  00000+0  54384-3 0  9991
2 64525  51.9024 254.7134 0000796  77.5932 282.5119 14.79916148 39488
KUIPER-00066            
1 64526U 25134AC  26066.07768682  .00022353  00000+0  95223-3 0  9990
2 64526  51.8711 196.3663 0001381 303.3265  56.7583 15.22879988 40363
KUIPER-00069            
1 64816U 25151A   26065.60771103  .00001074  00000+0  16995-3 0  9997
2 64816  51.9010 294.2531 0000773  96.8045 263.3005 14.79924623 36306
KUIPER-00070            
1 64817U 25151B   26066.08722191  .00003111  00000+0  43672-3 0  9990
2 64817  51.9012 317.0716 0000348 146.6855 213.4130 14.79942958 36035
KUIPER-00071            
1 64818U 25151C   26065.07658858  .00005142  00000+0  70115-3 0  9995
2 64818  51.9023 319.0558 0000532 246.6524 113.4383 14.80045616 34734
KUIPER-00072            
1 64819U 25151D   26066.01014025 -.00001302  00000+0 -14187-3 0  9996
2 64819  51.8979 294.9179 0001122 101.9085 258.2003 14.79924627 35155
KUIPER-00073            
1 64820U 25151E   26066.05616038  .00004228  00000+0  58326-3 0  9995
2 64820  51.9011 314.7210 0000888 102.7922 257.3139 14.79930601 36069
KUIPER-00074            
1 64821U 25151F   26066.16670139  .02314768  00000+0  15023+0 0  9998
2 64821  51.9034 300.8921 0000120 243.2862 358.0263 15.04275520  4088
KUIPER-00075            
1 64822U 25151G   26065.47026037  .00084339  00000+0  19526-2 0  9995
2 64822  51.8700 237.4514 0003585 258.4558 101.6029 15.41719220 35907
KUIPER-00076            
1 64823U 25151H   26066.05735695  .00004589  00000+0  62229-3 0  9996
2 64823  51.9006 304.6298 0000661  17.5886 342.5099 14.80491605 35026
KUIPER-00077            
1 64824U 25151J   26065.92492935  .00004216  00000+0  57850-3 0  9990
2 64824  51.9027 310.3090 0001231 195.9246 164.1678 14.80166170 34935
KUIPER-00078            
1 64825U 25151K   26066.03047914  .00001823  00000+0  26807-3 0  9996
2 64825  51.9006 307.3476 0000569  91.0083 269.0944 14.79922003 34984
KUIPER-00079            
1 64826U 25151L   26066.12622455  .00000474  00000+0  91121-4 0  9999
2 64826  51.9013 311.8992 0000352  91.2607 268.8395 14.79926001 36127
KUIPER-00080            
1 64827U 25151M   26065.07966087  .00000716  00000+0  12295-3 0  9998
2 64827  51.9002 316.5346 0000590  88.2490 271.8540 14.79925904 34777
KUIPER-00082            
1 64828U 25151N   26066.07229798  .00004435  00000+0  61038-3 0  9992
2 64828  51.9013 299.6763 0000699 107.7462 252.3577 14.79929171 35090
KUIPER-00083            
1 64829U 25151P   26066.06424003 -.00000015  00000+0  27107-4 0  9999
2 64829  51.9017 307.2020 0000973 107.2915 252.8154 14.79921987 36173
KUIPER-00084            
1 64830U 25151Q   26064.90557850  .00005727  00000+0  78191-3 0  9991
2 64830  51.9041 322.3095 0001680 189.6821 170.4109 14.79806868 34676
