[{"OBJECT_NAME":"KUIPER-00065","OBJECT_ID":"2025-134AB","EPOCH":"2026-03-06T12:22:42.555648","MEAN_MOTION":14.79916148,"ECCENTRICITY":7.96e-5,"INCLINATION":51.9024,"RA_OF_ASC_NODE":254.7134,"ARG_OF_PERICENTER":77.5932,"MEAN_ANOMALY":282.5119,"EPHEMERIS_TYPE":0,"CLASSIFICATION_TYPE":"U","NORAD_CAT_ID":64525,"ELEMENT_SET_NO":999,"REV_AT_EPOCH":3948,"BSTAR":0.00054384123,"MEAN_MOTION_DOT":3.925e-5,"MEAN_MOTION_DDOT":0},{"OBJECT_NAME":"KUIPER-00066","OBJECT_ID":"2025-134AC","EPOCH":"2026-03-07T01:51:52.141248","MEAN_MOTION":15.22879988,"ECCENTRICITY":0.0001381,"INCLINATION":51.8711,"RA_OF_ASC_NODE":196.3663,"ARG_OF_PERICENTER":303.3265,"MEAN_ANOMALY":56.7583,"EPHEMERIS_TYPE":0,"CLASSIFICATION_TYPE":"U","NORAD_CAT_ID":64526,"ELEMENT_SET_NO":999,"REV_AT_EPOCH":4036,"BSTAR":0.00095223,"MEAN_MOTION_DOT":0.00022353,"MEAN_MOTION_DDOT":0},{"OBJECT_NAME":"KUIPER-00069","OBJECT_ID":"2025-151A","EPOCH":"2026-03-06T14:35:06.232992","MEAN_MOTION":14.79924623,"ECCENTRICITY":7.732e-5,"INCLINATION":51.901,"RA_OF_ASC_NODE":294.2531,"ARG_OF_PERICENTER":96.8045,"MEAN_ANOMALY":263.3005,"EPHEMERIS_TYPE":0,"CLASSIFICATION_TYPE":"U","NORAD_CAT_ID":64816,"ELEMENT_SET_NO":999,"REV_AT_EPOCH":3630,"BSTAR":0.00016995032,"MEAN_MOTION_DOT":1.074e-5,"MEAN_MOTION_DDOT":0},{"OBJECT_NAME":"KUIPER-00070","OBJECT_ID":"2025-151B","EPOCH":"2026-03-07T02:05:35.973024","MEAN_MOTION":14.79942958,"ECCENTRICITY":3.48e-5,"INCLINATION":51.9012,"RA_OF_ASC_NODE":317.0716,"ARG_OF_PERICENTER":146.6855,"MEAN_ANOMALY":213.413,"EPHEMERIS_TYPE":0,"CLASSIFICATION_TYPE":"U","NORAD_CAT_ID":64817,"ELEMENT_SET_NO":999,"REV_AT_EPOCH":3603,"BSTAR":0.00043672,"MEAN_MOTION_DOT":3.111e-5,"MEAN_MOTION_DDOT":0},{"OBJECT_NAME":"KUIPER-00071","OBJECT_ID":"2025-151C","EPOCH":"2026-03-06T01:50:17.253312","MEAN_MOTION":14.80045616,"ECCENTRICITY":5.329e-5,"INCLINATION":51.9023,"RA_OF_ASC_NODE":319.0558,"ARG_OF_PERICENTER":246.6524,"MEAN_ANOMALY":113.4383,"EPHEMERIS_TYPE":0,"CLASSIFICATION_TYPE":"U","NORAD_CAT_ID":64818,"ELEMENT_SET_NO":999,"REV_AT_EPOCH":3473,"BSTAR":0.00070114945,"MEAN_MOTION_DOT":5.142e-5,"MEAN_MOTION_DDOT":0},{"OBJECT_NAME":"KUIPER-00072","OBJECT_ID":"2025-151D","EPOCH":"2026-03-07T00:14:36.117600","MEAN_MOTION":14.79924627,"ECCENTRICITY":0.0001122,"INCLINATION":51.8979,"RA_OF_ASC_NODE":294.9179,"ARG_OF_PERICENTER":101.9085,"MEAN_ANOMALY":258.2003,"EPHEMERIS_TYPE":0,"CLASSIFICATION_TYPE":"U","NORAD_CAT_ID":64819,"ELEMENT_SET_NO":999,"REV_AT_EPOCH":3515,"BSTAR":-0.00014187,"MEAN_MOTION_DOT":-1.302e-5,"MEAN_MOTION_DDOT":0},{"OBJECT_NAME":"KUIPER-00073","OBJECT_ID":"2025-151E","EPOCH":"2026-03-07T01:20:52.256832","MEAN_MOTION":14.79930601,"ECCENTRICITY":8.88e-5,"INCLINATION":51.9011,"RA_OF_ASC_NODE":314.721,"ARG_OF_PERICENTER":102.7922,"MEAN_ANOMALY":257.3139,"EPHEMERIS_TYPE":0,"CLASSIFICATION_TYPE":"U","NORAD_CAT_ID":64820,"ELEMENT_SET_NO":999,"REV_AT_EPOCH":3606,"BSTAR":0.00058326,"MEAN_MOTION_DOT":4.228e-5,"MEAN_MOTION_DDOT":0},{"OBJECT_NAME":"KUIPER-00074","OBJECT_ID":"2025-151F","EPOCH":"2026-03-07T04:00:03.000096","MEAN_MOTION":15.0427552,"ECCENTRICITY":1.2e-5,"INCLINATION":51.9034,"RA_OF_ASC_NODE":300.8921,"ARG_OF_PERICENTER":243.2862,"MEAN_ANOMALY":358.0263,"EPHEMERIS_TYPE":0,"CLASSIFICATION_TYPE":"U","NORAD_CAT_ID":64821,"ELEMENT_SET_NO":999,"REV_AT_EPOCH":408,"BSTAR":0.15023,"MEAN_MOTION_DOT":0.02314768,"MEAN_MOTION_DDOT":0},{"OBJECT_NAME":"KUIPER-00075","OBJECT_ID":"2025-151G","EPOCH":"2026-03-06T11:17:10.495968","MEAN_MOTION":15.4171922,"ECCENTRICITY":0.00035858,"INCLINATION":51.87,"RA_OF_ASC_NODE":237.4514,"ARG_OF_PERICENTER":258.4558,"MEAN_ANOMALY":101.6029,"EPHEMERIS_TYPE":0,"CLASSIFICATION_TYPE":"U","NORAD_CAT_ID":64822,"ELEMENT_SET_NO":999,"REV_AT_EPOCH":3590,"BSTAR":0.001952579,"MEAN_MOTION_DOT":0.00084339,"MEAN_MOTION_DDOT":0},{"OBJECT_NAME":"KUIPER-00076","OBJECT_ID":"2025-151H","EPOCH":"2026-03-07T01:22:35.640480","MEAN_MOTION":14.80491605,"ECCENTRICITY":6.61e-5,"INCLINATION":51.9006,"RA_OF_ASC_NODE":304.6298,"ARG_OF_PERICENTER":17.5886,"MEAN_ANOMALY":342.5099,"EPHEMERIS_TYPE":0,"CLASSIFICATION_TYPE":"U","NORAD_CAT_ID":64823,"ELEMENT_SET_NO":999,"REV_AT_EPOCH":3502,"BSTAR":0.00062229,"MEAN_MOTION_DOT":4.589e-5,"MEAN_MOTION_DDOT":0},{"OBJECT_NAME":"KUIPER-00077","OBJECT_ID":"2025-151J","EPOCH":"2026-03-06T22:11:53.895840","MEAN_MOTION":14.8016617,"ECCENTRICITY":0.0001231,"INCLINATION":51.9027,"RA_OF_ASC_NODE":310.309,"ARG_OF_PERICENTER":195.9246,"MEAN_ANOMALY":164.1678,"EPHEMERIS_TYPE":0,"CLASSIFICATION_TYPE":"U","NORAD_CAT_ID":64824,"ELEMENT_SET_NO":999,"REV_AT_EPOCH":3493,"BSTAR":0.0005785,"MEAN_MOTION_DOT":4.216e-5,"MEAN_MOTION_DDOT":0},{"OBJECT_NAME":"KUIPER-00078","OBJECT_ID":"2025-151K","EPOCH":"2026-03-07T00:43:53.397696","MEAN_MOTION":14.79922003,"ECCENTRICITY":5.69e-5,"INCLINATION":51.9006,"RA_OF_ASC_NODE":307.3476,"ARG_OF_PERICENTER":91.0083,"MEAN_ANOMALY":269.0944,"EPHEMERIS_TYPE":0,"CLASSIFICATION_TYPE":"U","NORAD_CAT_ID":64825,"ELEMENT_SET_NO":999,"REV_AT_EPOCH":3498,"BSTAR":0.00026807,"MEAN_MOTION_DOT":1.823e-5,"MEAN_MOTION_DDOT":0},{"OBJECT_NAME":"KUIPER-00079","OBJECT_ID":"2025-151L","EPOCH":"2026-03-07T03:01:45.801120","MEAN_MOTION":14.79926001,"ECCENTRICITY":3.52e-5,"INCLINATION":51.9013,"RA_OF_ASC_NODE":311.8992,"ARG_OF_PERICENTER":91.2607,"MEAN_ANOMALY":268.8395,"EPHEMERIS_TYPE":0,"CLASSIFICATION_TYPE":"U","NORAD_CAT_ID":64826,"ELEMENT_SET_NO":999,"REV_AT_EPOCH":3612,"BSTAR":9.1121e-5,"MEAN_MOTION_DOT":4.74e-6,"MEAN_MOTION_DDOT":0},{"OBJECT_NAME":"KUIPER-00080","OBJECT_ID":"2025-151M","EPOCH":"2026-03-06T01:54:42.699168","MEAN_MOTION":14.79925904,"ECCENTRICITY":5.903e-5,"INCLINATION":51.9002,"RA_OF_ASC_NODE":316.5346,"ARG_OF_PERICENTER":88.249,"MEAN_ANOMALY":271.854,"EPHEMERIS_TYPE":0,"CLASSIFICATION_TYPE":"U","NORAD_CAT_ID":64827,"ELEMENT_SET_NO":999,"REV_AT_EPOCH":3477,"BSTAR":0.00012295244,"MEAN_MOTION_DOT":7.16e-6,"MEAN_MOTION_DDOT":0},{"OBJECT_NAME":"KUIPER-00082","OBJECT_ID":"2025-151N","EPOCH":"2026-03-07T01:44:06.545472","MEAN_MOTION":14.79929171,"ECCENTRICITY":6.99e-5,"INCLINATION":51.9013,"RA_OF_ASC_NODE":299.6763,"ARG_OF_PERICENTER":107.7462,"MEAN_ANOMALY":252.3577,"EPHEMERIS_TYPE":0,"CLASSIFICATION_TYPE":"U","NORAD_CAT_ID":64828,"ELEMENT_SET_NO":999,"REV_AT_EPOCH":3509,"BSTAR":0.00061038,"MEAN_MOTION_DOT":4.435e-5,"MEAN_MOTION_DDOT":0},{"OBJECT_NAME":"KUIPER-00083","OBJECT_ID":"2025-151P","EPOCH":"2026-03-07T01:32:30.338592","MEAN_MOTION":14.79921987,"ECCENTRICITY":9.73e-5,"INCLINATION":51.9017,"RA_OF_ASC_NODE":307.202,"ARG_OF_PERICENTER":107.2915,"MEAN_ANOMALY":252.8154,"EPHEMERIS_TYPE":0,"CLASSIFICATION_TYPE":"U","NORAD_CAT_ID":64829,"ELEMENT_SET_NO":999,"REV_AT_EPOCH":3617,"BSTAR":2.7107e-5,"MEAN_MOTION_DOT":-1.5e-7,"MEAN_MOTION_DDOT":0},{"OBJECT_NAME":"KUIPER-00084","OBJECT_ID":"2025-151Q","EPOCH":"2026-03-05T21:44:01.982400","MEAN_MOTION":14.79806868,"ECCENTRICITY":0.00016808,"INCLINATION":51.9041,"RA_OF_ASC_NODE":322.3095,"ARG_OF_PERICENTER":189.6821,"MEAN_ANOMALY":170.4109,"EPHEMERIS_TYPE":0,"CLASSIFICATION_TYPE":"U","NORAD_CAT_ID":64830,"ELEMENT_SET_NO":999,"REV_AT_EPOCH":3467,"BSTAR":0.00078190832,"MEAN_MOTION_DOT":5.727e-5,"MEAN_MOTION_DDOT":0}]
